54206,STARLINK-5264,2025-12-13T17:27:53.304192,2025-12-14T13:04:14.456627,53.2173,344.8549,0.0001364,87.2356,272.8792,15.0883116,-53655-5,17351,1 54206U 22141BB  25347.72770028 -.00000373  00000+0 -53655-5 0  9994,2 54206  53.2173 344.8549 0001364  87.2356 272.8792 15.08831160173519
54207,STARLINK-5262,2025-12-13T09:07:44.013792,2025-12-14T13:04:14.456627,53.217,21.187,0.0001277,87.8625,272.2514,15.08839252,19256-3,17297,1 54207U 22141BC  25347.38037053  .00002778  00000+0  19256-3 0  9997,2 54207  53.2170  21.1870 0001277  87.8625 272.2514 15.08839252172972
54208,STARLINK-5255,2025-12-13T17:58:23.160288,2025-12-14T13:04:14.456627,53.2195,354.9699,0.0001335,89.5315,270.583,15.08846557,11131-3,17337,1 54208U 22141BD  25347.74887917  .00001484  00000+0  11131-3 0  9997,2 54208  53.2195 354.9699 0001335  89.5315 270.5830 15.08846557173379
54209,STARLINK-5259,2025-12-13T18:46:38.864064,2025-12-14T13:04:14.456627,53.2186,9.4326,0.0001322,88.6826,271.4318,15.0886408,32121-3,17317,1 54209U 22141BE  25347.78239426  .00004831  00000+0  32121-3 0  9999,2 54209  53.2186   9.4326 0001322  88.6826 271.4318 15.08864080173172
54758,STARLINK-5464,2025-12-13T22:56:29.306400,2025-12-14T13:04:14.456627,53.218,64.1886,0.0001438,88.7969,271.3188,15.08845793,15979-3,16704,1 54758U 22175A   25347.95589475  .00002256  00000+0  15979-3 0  9997,2 54758  53.2180  64.1886 0001438  88.7969 271.3188 15.08845793167044
54759,STARLINK-5215,2025-12-13T15:04:51.078144,2025-12-14T13:04:14.456627,53.2177,65.691,0.000145,97.338,262.7778,15.08854722,14288-3,16699,1 54759U 22175B   25347.62836896  .00001988  00000+0  14288-3 0  9997,2 54759  53.2177  65.6910 0001450  97.3380 262.7778 15.08854722166996
54760,STARLINK-5220,2025-12-13T22:58:28.686144,2025-12-14T13:04:14.456627,53.2195,69.1807,0.0001396,82.3868,277.7283,15.08843996,21058-4,16697,1 54760U 22175C   25347.95727646  .00000047  00000+0  21058-4 0  9996,2 54760  53.2195  69.1807 0001396  82.3868 277.7283 15.08843996166972
54761,STARLINK-5202,2025-12-13T23:03:47.212704,2025-12-14T13:04:14.456627,53.2181,69.1977,0.0001528,137.9759,222.135,15.08838793,21723-3,16697,1 54761U 22175D   25347.96096311  .00003171  00000+0  21723-3 0  9995,2 54761  53.2181  69.1977 0001528 137.9759 222.1350 15.08838793166977
54762,STARLINK-5214,2025-12-13T22:42:33.211872,2025-12-14T13:04:14.456627,53.217,69.1112,0.0001199,86.1256,273.9874,15.08833997,-11760-3,16697,1 54762U 22175E   25347.94621773 -.00002159  00000+0 -11760-3 0  9997,2 54762  53.2170  69.1112 0001199  86.1256 273.9874 15.08833997166974
54763,STARLINK-5191,2025-12-13T22:53:10.434336,2025-12-14T13:04:14.456627,53.2157,69.1545,7.07e-05,88.3305,271.7768,15.08849539,20946-3,16697,1 54763U 22175F   25347.95359299  .00003048  00000+0  20946-3 0  9992,2 54763  53.2157  69.1545 0000707  88.3305 271.7768 15.08849539166970
54764,STARLINK-5458,2025-12-13T22:22:42.881664,2025-12-14T13:04:14.456627,53.2182,69.0292,0.0001182,81.7418,278.3709,15.08842242,-23759-4,16697,1 54764U 22175G   25347.93244076 -.00000666  00000+0 -23759-4 0  9998,2 54764  53.2182  69.0292 0001182  81.7418 278.3709 15.08842242166979
54766,STARLINK-5471,2025-12-13T22:31:57.232704,2025-12-14T13:04:14.456627,53.2178,69.0677,0.0001334,87.7664,272.3481,15.08837914,78277-4,16697,1 54766U 22175J   25347.93885686  .00000958  00000+0  78277-4 0  9995,2 54766  53.2178  69.0677 0001334  87.7664 272.3481 15.08837914166972
54767,STARLINK-5472,2025-12-13T22:26:39.138144,2025-12-14T13:04:14.456627,53.217,69.042,0.0001241,80.059,280.0542,15.08834021,20626-3,16697,1 54767U 22175K   25347.93517521  .00002996  00000+0  20626-3 0  9994,2 54767  53.2170  69.0420 0001241  80.0590 280.0542 15.08834021166972
54768,STARLINK-5444,2025-12-13T21:45:02.688768,2025-12-14T13:04:14.456627,53.2183,54.6001,0.0001351,81.4674,278.6471,15.08838172,-44924-4,16717,1 54768U 22175L   25347.90628112 -.00001003  00000+0 -44924-4 0  9999,2 54768  53.2183  54.6001 0001351  81.4674 278.6471 15.08838172167170
54770,STARLINK-5448,2025-12-13T21:17:07.659744,2025-12-14T13:04:14.456627,53.2181,54.4866,0.0001197,93.1569,266.956,15.08848815,11814-3,16717,1 54770U 22175N   25347.88689421  .00001593  00000+0  11814-3 0  9992,2 54770  53.2181  54.4866 0001197  93.1569 266.9560 15.08848815167173
54771,STARLINK-5451,2025-12-13T22:03:25.924320,2025-12-14T13:04:14.456627,53.2182,63.9608,0.0001301,85.3593,274.7547,15.08847805,16318-3,16704,1 54771U 22175P   25347.91905005  .00002311  00000+0  16318-3 0  9999,2 54771  53.2182  63.9608 0001301  85.3593 274.7547 15.08847805167047
54772,STARLINK-5452,2025-12-13T21:11:48.125760,2025-12-14T13:04:14.456627,53.2183,54.4629,0.0001187,97.3343,262.7784,15.08874692,60540-3,16717,1 54772U 22175Q   25347.88319590  .00009369  00000+0  60540-3 0  9990,2 54772  53.2183  54.4629 0001187  97.3343 262.7784 15.08874692167173
54773,STARLINK-5453,2025-12-13T22:16:01.903584,2025-12-14T13:04:14.456627,53.2164,68.9934,0.0001316,76.546,283.5679,15.08834339,10633-3,16697,1 54773U 22175R   25347.92779981  .00001404  00000+0  10633-3 0  9990,2 54773  53.2164  68.9934 0001316  76.5460 283.5679 15.08834339166970
54774,STARLINK-5454,2025-12-13T21:43:32.338560,2025-12-14T13:04:14.456627,53.2196,53.901,0.0001253,102.273,257.8403,15.08846505,-12355-3,16718,1 54774U 22175S   25347.90523540 -.00002254  00000+0 -12355-3 0  9996,2 54774  53.2196  53.9010 0001253 102.2730 257.8403 15.08846505167183
54775,STARLINK-5465,2025-12-13T22:10:42.567456,2025-12-14T13:04:14.456627,53.2186,68.9746,0.0001285,94.7181,265.3958,15.08852786,11603-3,16697,1 54775U 22175T   25347.92410379  .00001560  00000+0  11603-3 0  9996,2 54775  53.2186  68.9746 0001285  94.7181 265.3958 15.08852786166978
54776,STARLINK-5470,2025-12-13T23:14:16.206432,2025-12-14T13:04:14.456627,53.2186,68.5422,0.0001346,78.9584,281.1559,15.08852038,-76199-5,16698,1 54776U 22175U   25347.96824313 -.00000409  00000+0 -76199-5 0  9994,2 54776  53.2186  68.5422 0001346  78.9584 281.1559 15.08852038166989
54777,STARLINK-5468,2025-12-13T22:05:24.139392,2025-12-14T13:04:14.456627,53.2184,68.951,0.000128,77.759,282.3546,15.08858141,50942-4,16697,1 54777U 22175V   25347.92041828  .00000523  00000+0  50942-4 0  9995,2 54777  53.2184  68.9510 0001280  77.7590 282.3546 15.08858141166970
54778,STARLINK-5450,2025-12-13T16:15:02.546784,2025-12-14T13:04:14.456627,53.2166,55.3089,0.0001593,96.5508,263.5666,15.08882688,13492-2,16714,1 54778U 22175W   25347.67711281  .00021275  00000+0  13492-2 0  9999,2 54778  53.2166  55.3089 0001593  96.5508 263.5666 15.08882688167144
54779,STARLINK-5447,2025-12-13T21:06:31.509504,2025-12-14T13:04:14.456627,53.218,54.439,0.0001489,90.4179,269.6984,15.08830389,54005-4,16717,1 54779U 22175X   25347.87953136  .00000571  00000+0  54005-4 0  9992,2 54779  53.2180  54.4390 0001489  90.4179 269.6984 15.08830389167171
54780,STARLINK-5449,2025-12-13T22:15:21.871008,2025-12-14T13:04:14.456627,53.2177,54.0268,0.0001328,74.9068,285.2071,15.08857832,-40743-4,16718,1 54780U 22175Y   25347.92733647 -.00000937  00000+0 -40743-4 0  9995,2 54780  53.2177  54.0268 0001328  74.9068 285.2071 15.08857832167189
54781,STARLINK-5443,2025-12-13T14:34:21.801792,2025-12-14T13:04:14.456627,53.219,55.5762,0.0001514,103.554,256.5621,15.0884571,11088-3,16713,1 54781U 22175Z   25347.60719678  .00001477  00000+0  11088-3 0  9996,2 54781  53.2190  55.5762 0001514 103.5540 256.5621 15.08845710167130
54783,STARLINK-5439,2025-12-13T11:18:17.002368,2025-12-14T13:04:14.456627,53.2181,56.1559,0.0001203,96.8203,263.2926,15.08846713,88258-4,16711,1 54783U 22175AB  25347.47103012  .00001117  00000+0  88258-4 0  9997,2 54783  53.2181  56.1559 0001203  96.8203 263.2926 15.08846713167113
54784,STARLINK-5442,2025-12-13T15:38:33.259776,2025-12-14T13:04:14.456627,53.2178,70.1182,0.0001376,80.5005,279.6143,15.08854948,47983-4,16693,1 54784U 22175AC  25347.65177384  .00000476  00000+0  47983-4 0  9998,2 54784  53.2178  70.1182 0001376  80.5005 279.6143 15.08854948166939
54785,STARLINK-5440,2025-12-13T18:48:41.689440,2025-12-14T13:04:14.456627,53.2191,14.6368,0.0001215,86.2503,273.8628,15.08842707,15002-3,16772,1 54785U 22175AD  25347.78381585  .00002101  00000+0  15002-3 0  9996,2 54785  53.2191  14.6368 0001215  86.2503 273.8628 15.08842707167724
54787,STARLINK-5441,2025-12-13T13:57:56.812320,2025-12-14T13:04:14.456627,53.2186,70.3903,0.000182,100.2834,259.8364,15.08777575,-52040-3,16692,1 54787U 22175AF  25347.58190755 -.00008547  00000+0 -52040-3 0  9998,2 54787  53.2186  70.3903 0001820 100.2834 259.8364 15.08777575166922
54788,STARLINK-5399,2025-12-13T22:10:03.679680,2025-12-14T13:04:14.456627,53.22,54.0079,0.0001467,67.6765,292.4383,15.08829713,17394-3,16718,1 54788U 22175AG  25347.92365370  .00002481  00000+0  17394-3 0  9996,2 54788  53.2200  54.0079 0001467  67.6765 292.4383 15.08829713167184
54789,STARLINK-5446,2025-12-13T20:34:00.605280,2025-12-14T13:04:14.456627,53.2186,39.2056,0.0001084,93.323,266.7886,15.08851463,48838-3,16738,1 54789U 22175AH  25347.85695145  .00007496  00000+0  48838-3 0  9993,2 54789  53.2186  39.2056 0001084  93.3230 266.7886 15.08851463167387
54790,STARLINK-5445,2025-12-13T14:02:31.911648,2025-12-14T13:04:14.456627,53.2186,55.4482,0.0001572,80.1837,279.9333,15.08842069,-45719-6,16713,1 54790U 22175AJ  25347.58509157 -.00000295  00000+0 -45719-6 0  9992,2 54790  53.2186  55.4482 0001572  80.1837 279.9333 15.08842069167139
54791,STARLINK-5425,2025-12-13T14:23:45.672288,2025-12-14T13:04:14.456627,53.2174,55.5374,0.0001607,101.7578,258.3595,15.08841313,75697-4,16713,1 54791U 22175AK  25347.59983417  .00000917  00000+0  75697-4 0  9994,2 54791  53.2174  55.5374 0001607 101.7578 258.3595 15.08841313167131
54792,STARLINK-5431,2025-12-13T13:47:15.770976,2025-12-14T13:04:14.456627,53.2177,70.3467,0.000156,94.6661,265.4509,15.08846789,10614-3,16692,1 54792U 22175AL  25347.57448809  .00001402  00000+0  10614-3 0  9991,2 54792  53.2177  70.3467 0001560  94.6661 265.4509 15.08846789166926
